"Name","StoreID","City","County","PostCode","Phone","Manager","URL"
"Rochester,NH","3489","Rochester","Strafford","03867","(603) 335-1300","Shawn C.","/l/Rochester-NH/NH/Rochester/03867/3489"
"Somersworth","8931","Somersworth","Strattford","03878","(603) 692-0007","Amy L.","/l/Somersworth/NH/Somersworth/03878/8931"
"Biddeford","2405","Biddeford","York","04005","(207) 284-1115","Timothy B.","/l/Biddeford/ME/Biddeford/04005/2405"
"South Portland","2406","South Portland","Cumberland","04106","(207) 879-2500","Nicholas C.","/l/South-Portland/ME/South-Portland/04106/2406"
"Portland","2401","Portland","Cumberland","04103","(207) 761-0600","John T.","/l/Portland/ME/Portland/04103/2401"
"Portsmouth","3409","Portsmouth","Rockingham","03801","(603) 431-0517","Richard A.","/l/Portsmouth/NH/Portsmouth/03801/3409"
"North Windham","2412","Windham","Cumberland","04062","(207) 892-1793","Shaina M.","/l/North-Windham/ME/Windham/04062/2412"
"Tilton","3402","Tilton","Belknap","03276","(603) 286-9599","Nanette C.","/l/Tilton/NH/Tilton/03276/3402"
"North Conway","3407","North Conway","Carroll","03860","(603) 356-4130","Bradford B.","/l/North-Conway/NH/North-Conway/03860/3407"
"Concord, NH","3485","Concord","Merrimack","03301","(603) 227-0580","Kelly M.","/l/Concord-NH/NH/Concord/03301/3485"
"North Hampton","3405","North Hampton","Rockingham","03862","(603) 964-1526","Nicolas L.","/l/North-Hampton/NH/North-Hampton/03862/3405"
"Hooksett","3403","Hooksett","Merrimack","03106","(603) 644-1792","Matthew S.","/l/Hooksett/NH/Hooksett/03106/3403"
"Seabrook","3404","Seabrook","Rockingham","03874","(603) 474-0150","William B.","/l/Seabrook/NH/Seabrook/03874/3404"
"Manchester, NH","3482","Manchester","Hillsborough","03103","(603) 627-1900","Peter C.","/l/Manchester-NH/NH/Manchester/03103/3482"
"Plaistow","3487","Plaistow","Rockingham","03865","(603) 378-2172","Renee M.","/l/Plaistow/NH/Plaistow/03865/3487"
"Topsham","2410","Topsham","Sagadahoc","04086","(207) 798-6931","Bruce C.","/l/Topsham/ME/Topsham/04086/2410"
"Auburn, ME","2403","Auburn","Androscoggin","04210","(207) 777-0042","Karl S.","/l/Auburn-ME/ME/Auburn/04210/2403"
"Augusta, ME","2404","Augusta","Kennebec","04330","(207) 621-6888","Levi J.","/l/Augusta-ME/ME/Augusta/04330/2404"
"Methuen","2685","Methuen","Essex","01844","(978) 989-9025","Carmen F.","/l/Methuen/MA/Methuen/01844/2685"
"Salem, NH","3480","Salem","Rockingham","03079","(603) 894-1900","David P.","/l/Salem-NH/NH/Salem/03079/3480"
"Londonderry","3401","Londonderry","Rockingham","03053","(603) 537-1927","Bonnie R.","/l/Londonderry/NH/Londonderry/03053/3401"
"Danvers East","2623","Danvers","Essex","01923","(978) 750-8883","Christina L.","/l/Danvers-East/MA/Danvers/01923/2623"
"Danvers","2663","Danvers","Essex","01923","(978) 774-0400","Jim H.","/l/Danvers/MA/Danvers/01923/2663"
"Salem,MA","2686","Salem","Essex","01970","(978) 741-9299","Michael L.","/l/Salem-MA/MA/Salem/01970/2686"
"Rockland,ME","2409","Rockland","Knox","04841","(207) 594-6401","Gerald W.","/l/Rockland-ME/ME/Rockland/04841/2409"
"Waterville","2407","Waterville","Kennebec","04901","(207) 873-9299","Ronny C.","/l/Waterville/ME/Waterville/04901/2407"
"Littleton, NH","8539","Littleton","Grafton","03561","(603) 444-7520","Peter L.","/l/Littleton-NH/NH/Littleton/03561/8539"
"Bangor","2414","Bangor","Penobscot","04401","(207) 990-3133","Coleman F.","/l/Bangor/ME/Bangor/04401/2414"
"Ellsworth","2408","Ellsworth","Hancock","04605","(207) 667-1986","Joshua K.","/l/Ellsworth/ME/Ellsworth/04605/2408"
"W Lebanon","3406","West Lebanon","Grafton","03784","(603) 298-9540","Kenneth F.","/l/W-Lebanon/NH/West-Lebanon/03784/3406"
"Claremont","3408","Claremont","Sullivan","03743","(603) 542-4471","Damien C.","/l/Claremont/NH/Claremont/03743/3408"
"Rutland","4502","Rutland","Rutland","05701","(802) 786-6900","Andrew S.","/l/Rutland/VT/Rutland/05701/4502"
"Keene","3488","Keene","Cheshire","03431","(603) 355-2113","Charles S.","/l/Keene/NH/Keene/03431/3488"
"Williston","4501","Williston","Chittenden","05495","(802) 872-0039","Melissa G.","/l/Williston/VT/Williston/05495/4501"
"Glens Falls","6160","Queensbury","Warren","12804","(518) 798-8301","Amanda P.","/l/Glens-Falls/NY/Queensbury/12804/6160"
"Bennington","4551","Bennington","Bennington","05201","(802) 447-9997","Jameson D.","/l/Bennington/VT/Bennington/05201/4551"
"Greenfield,MA","2619","Greenfield","Franklin","01301","(413) 773-9150","Jared P.","/l/Greenfield-MA/MA/Greenfield/01301/2619"
"Saratoga Springs","1223","Saratoga Springs","Saratoga","12866","(518) 581-6480","Mark W.","/l/Saratoga-Springs/NY/Saratoga-Springs/12866/1223"
"Clifton Park","1269","Halfmoon","Saratoga","12065","(518) 348-0158","John G.","/l/Clifton-Park/NY/Halfmoon/12065/1269"
"South Merrimack","3486","Merrimack","Hillsborough","03054","(603) 882-5522","Renee H.","/l/South-Merrimack/NH/Merrimack/03054/3486"
"Pittsfield","2683","Pittsfield","Berkshire","01201","(413) 445-9901","Anthony F.","/l/Pittsfield/MA/Pittsfield/01201/2683"
"Latham","1259","Latham","Albany","12110","(518) 782-9867","Craig F.","/l/Latham/NY/Latham/12110/1259"
"N Greenbush","1263","Rensselaer","Rensselaer","12144","(518) 283-1819","Scott R.","/l/N-Greenbush/NY/Rensselaer/12144/1263"
"Albany,NY","1262","Albany","Albany","12205","(518) 438-1586","Jason G.","/l/Albany-NY/NY/Albany/12205/1262"
"AlbaNY","1241","Albany","Albany","12205","(518) 452-9600","Vincent T.","/l/AlbaNY/NY/Albany/12205/1241"
"Schenectady","1239","Schenectady","Schenectady","12304","(518) 388-9121","Brett M.","/l/Schenectady/NY/Schenectady/12304/1239"
"Hadley","8452","Hadley","Hampshire","01035","(413) 587-2790","George P.","/l/Hadley/MA/Hadley/01035/8452"
"Amsterdam","1289","Amsterdam","Montgomery","12010","(518) 843-1275","Carmen C.","/l/Amsterdam/NY/Amsterdam/12010/1289"
"Chicopee","2610","Chicopee","Hampden","01020","(413) 593-5400","Christopher C.","/l/Chicopee/MA/Chicopee/01020/2610"
"Leominster","2676","Leominster","Worcester","01453","(978) 840-0800","Michael R.","/l/Leominster/MA/Leominster/01453/2676"
"E Springfield","2678","Wilbraham","Hampden","01095","(413) 543-8100","Jessica M.","/l/E-Springfield/MA/Wilbraham/01095/2678"
"W Springfield","2662","West Springfield","Hampden","01089","(413) 731-9700","Michele M.","/l/W-Springfield/MA/West-Springfield/01089/2662"
"Westfield","8923","Westfield","Hampden","01085","(413) 564-0680","Dustin K.","/l/Westfield/MA/Westfield/01085/8923"
"Worcester,MA","2684","Worcester","Worcester","01606","(508) 852-6260","Pedro F.","/l/Worcester-MA/MA/Worcester/01606/2684"
"Tewksbury","2668","Tewksbury","Middlesex","01876","(978) 640-0400","Kenneth Z.","/l/Tewksbury/MA/Tewksbury/01876/2668"
"Reading,MA","2614","Reading","Middlesex","01867","(781) 944-6423","Jairo N.","/l/Reading-MA/MA/Reading/01867/2614"
"Nashua","3481","Nashua","Hillsborough","03060","(603) 891-4300","Madalinerose G.","/l/Nashua/NH/Nashua/03060/3481"
"Saugus","2653","Saugus","Essex","01906","(781) 231-9500","Brady D.","/l/Saugus/MA/Saugus/01906/2653"
"Nashua Mall","3484","Nashua","Hillsborough","03063","(603) 879-9666","Dana F.","/l/Nashua-Mall/NH/Nashua/03063/3484"
"Waltham","2674","Waltham","Middlesex","02451","(781) 672-0900","Michael A.","/l/Waltham/MA/Waltham/02451/2674"
"Everett,MA","2688","Everett","Middlesex","02149","(617) 389-2323","Joanne M.","/l/Everett-MA/MA/Everett/02149/2688"
"Somerville","2667","Somerville","Middlesex","02143","(617) 623-0001","David C.","/l/Somerville/MA/Somerville/02143/2667"
"Chelsea,MA","8979","Chelsea","Suffolk","02150","(617) 887-9560","Jeffrey S.","/l/Chelsea-MA/MA/Chelsea/02150/8979"
"Watertown","2602","Watertown","Middlesex","02472","(617) 926-0299","Edward S.","/l/Watertown/MA/Watertown/02472/2602"
"South Bay/Boston","2679","Boston","Suffolk","02125","(617) 442-6110","Stephen C.","/l/South-Bay-Boston/MA/Boston/02125/2679"
